{"type": "FeatureCollection", "features": [{"type": "Feature", "geometry": {"type": "LineString", "coordinates": [[37.58807507, 55.59657683], [37.58852605, 55.59872098], [37.58896473, 55.60048714], [37.58945246, 55.60246308], [37.5903004, 55.60611312], [37.59102749, 55.60899713], [37.59215968, 55.61351128], [37.59299208, 55.61623051], [37.59394526, 55.61949019], [37.59605983, 55.62456713], [37.59899743, 55.62849035], [37.60102877, 55.63118209], [37.60393742, 55.63486141], [37.60526029, 55.63774302], [37.60573152, 55.64036325], [37.60569728, 55.64306927], [37.60565615, 55.6451741], [37.60557104, 55.64941433], [37.60563747, 55.65288042], [37.60558607, 55.65634537], [37.60862856, 55.65841001]]}, "properties": {"route": 1, "trip": "2040920", "direction": "0", "stop_count": 21, "stops": ["Чертаново Южное", "Поликлиника", "ОВД \"Чертаново Южное\"", "Чертановская улица, 53", "Кировоградские пруды", "Чертановская улица, 44", "Чертаново Центральное", "Детская стоматологическая поликлиника", "Чертановская улица, 28", "Кинотеатр \"Ашхабад\"", "Школьный парк", "Футбольная школа Чертаново", "Сумской проезд", "Верхний Чертановский пруд", "Метро \"Чертановская\"", "Балаклавский проспект", "Черноморский бульвар", "Симферопольский бульвар, 20", "Метро \"Каховская\"", "Болотниковская улица", "Москворецкий рынок"]}}, {"type": "Feature", "geometry": {"type": "LineString", "coordinates": [[37.60862856, 55.65841001], [37.60520769, 55.65619014], [37.60513109, 55.65352634], [37.60538678, 55.64911174], [37.60545188, 55.64561675], [37.6055104, 55.64261869], [37.60549058, 55.64029108], [37.60508089, 55.63783765], [37.60309472, 55.6339017], [37.60087457, 55.63134129], [37.59842823, 55.62872139], [37.59565143, 55.62422888], [37.5937583, 55.61971205], [37.59277378, 55.61639525], [37.59149031, 55.6117993], [37.59083221, 55.60913901], [37.59010077, 55.60600164], [37.5892918, 55.60254477], [37.5888636, 55.60080494], [37.58842431, 55.5989509], [37.58788823, 55.59667811], [37.59088377, 55.59468022]]}, "properties": {"route": 1, "trip": "2040921", "direction": "1", "stop_count": 22, "stops": ["Москворецкий рынок", "Болотниковская улица", "Метро \"Каховская\"", "Симферопольский бульвар, 20", "Черноморский бульвар", "Балаклавский проспект", "Метро \"Чертановская\"", "Верхний Чертановский пруд", "Сумской проезд", "Футбольная школа Чертаново", "Школьный парк", "Кинотеатр \"Ашхабад\"", "Чертановская улица, 28", "Детская стоматологическая поликлиника", "Чертаново Центральное", "Чертановская улица, 44", "Кировоградские пруды", "Чертановская улица, 53", "ОВД \"Чертаново Южное\"", "Поликлиника", "Чертаново Южное", "Чертаново Южное"]}}, {"type": "Feature", "geometry": {"type": "LineString", "coordinates": [[37.66015268, 55.75561588], [37.66381365, 55.75303592], [37.66501994, 55.75139494], [37.66850777, 55.74738145], [37.67409047, 55.74701593], [37.68172587, 55.74677458], [37.68947773, 55.7473783], [37.69341695, 55.74765675], [37.7020464, 55.74870511], [37.70844553, 55.74993524], [37.7161645, 55.75150237], [37.72082716, 55.75236271], [37.72378877, 55.75291464], [37.73668507, 55.75545612], [37.74327506, 55.75681791], [37.74822061, 55.75891686], [37.75253621, 55.75855793], [37.75667589, 55.75935534], [37.76855408, 55.76169944], [37.77393824, 55.76271348], [37.77767661, 55.76342582], [37.7825166, 55.76451257]]}, "properties": {"route": 2, "trip": "2043245", "direction": "0", "stop_count": 22, "stops": ["Курский вокзал", "3-й Сыромятнический переулок", "Дом культуры Метростроя", "Костомаровский мост", "Хлебников переулок", "Метро \"Площадь Ильича\"", "МЦД Москва-Товарная", "Старообрядческая улица", "Душинская улица", "Горбатый путепровод", "Метро \"Авиамоторная\"", "Метро \"Авиамоторная\"", "Дом культуры \"Компрессор\"", "Улица Буракова", "Проспект Будённого", "МЦК Шоссе Энтузиастов", "Метро \"Шоссе Энтузиастов\"", "Улица Плеханова", "Главная аллея", "Кинотеатр \"Слава\"", "2-я Владимирская улица", "3-я Владимирская улица"]}}, {"type": "Feature", "geometry": {"type": "LineString", "coordinates": [[37.7825166, 55.76451257], [37.77770386, 55.76355907], [37.77364276, 55.76277179], [37.76920278, 55.76190454], [37.75660188, 55.75945168], [37.75218526, 55.75865873], [37.74843478, 55.75892135], [37.7423284, 55.75675722], [37.73695626, 55.75561843], [37.72392332, 55.75309599], [37.72077085, 55.75246234], [37.71547704, 55.75147797], [37.70916248, 55.75019468], [37.70119769, 55.74863737], [37.69482339, 55.74786714], [37.68921718, 55.74743741], [37.68165749, 55.74687906], [37.67372764, 55.74709863], [37.66858237, 55.74753346], [37.66537738, 55.75116833], [37.66370543, 55.75342677], [37.66015268, 55.75561588]]}, "properties": {"route": 2, "trip": "2043246", "direction": "1", "stop_count": 22, "stops": ["3-я Владимирская улица", "2-я Владимирская улица", "Кинотеатр \"Слава\"", "Главная аллея", "Улица Плеханова", "Метро \"Шоссе Энтузиастов\"", "МЦК Шоссе Энтузиастов", "Проспект Будённого", "Улица Буракова", "Дом культуры \"Компрессор\"", "Метро \"Авиамоторная\"", "Метро \"Авиамоторная\"", "Горбатый путепровод", "Душинская улица", "Старообрядческая улица", "МЦД Москва-Товарная", "Метро \"Площадь Ильича\"", "Хлебников переулок", "Костомаровский мост", "Дом культуры Метростроя", "3-й Сыромятнический переулок", "Курский вокзал"]}}, {"type": "Feature", "geometry": {"type": "LineString", "coordinates": [[37.60424809, 55.64377022], [37.60565615, 55.6451741], [37.60557104, 55.64941433], [37.60563747, 55.65288042], [37.60558607, 55.65634537], [37.61039681, 55.66063116], [37.61319437, 55.66284786], [37.61519163, 55.66408781], [37.62532668, 55.66903712], [37.6266279, 55.6754392], [37.62557022, 55.67836167], [37.62454811, 55.68141958], [37.62392124, 55.68405212], [37.62243562, 55.69006708], [37.6213561, 55.6957588], [37.62172581, 55.70118813], [37.62307355, 55.70439425], [37.62464873, 55.70892068], [37.62533823, 55.71139732], [37.63144595, 55.71154065], [37.63341427, 55.71433792], [37.63355754, 55.71652244], [37.63502524, 55.71992], [37.63669657, 55.72398833], [37.63744234, 55.72715482], [37.63646275, 55.73048332], [37.63556587, 55.73154392], [37.63255825, 55.73575699], [37.62985177, 55.74046353], [37.62982857, 55.74203117], [37.63462863, 55.74430251], [37.6421953, 55.75014315], [37.64749049, 55.75269798], [37.64853498, 55.75642458], [37.64646608, 55.75917154], [37.64290262, 55.76315028], [37.63875577, 55.7646289]]}, "properties": {"route": 3, "trip": "2040216", "direction": "0", "stop_count": 37, "stops": ["Метро \"Чертановская\"", "Черноморский бульвар", "Симферопольский бульвар, 20", "Метро \"Каховская\"", "Болотниковская улица", "Фруктовая улица", "Нахимовский проспект", "Симферопольский бульвар", "Хлебозаводский проезд", "1-й Нагатинский проезд", "Нижние Котлы", "Платформа Нагатинская", "Метро \"Нагатинская\"", "МЦК Верхние Котлы", "Стадион \"Труд\"", "Даниловская мануфактура", "Платформа Тульская", "Метро \"Тульская\"", "Серпуховская Застава", "Свято-Данилов монастырь", "Улица Даниловский Вал", "1-й Павловский переулок", "Дубининская улица, 57", "Жуков проезд", "Стремянный переулок", "Павелецкий вокзал", "Метро \"Павелецкая\"", "Вишняковский переулок", "Метро \"Третьяковская\"", "Метро \"Новокузнецкая\"", "Комиссариатский мост", "Яузские Ворота", "Воронцово Поле", "Казарменный переулок", "Покровские Ворота", "Большой Харитоньевский переулок", "Метро \"Чистые пруды\""]}}, {"type": "Feature", "geometry": {"type": "LineString", "coordinates": [[37.63875577, 55.7646289], [37.6411424, 55.76306613], [37.64504413, 55.75944056], [37.64778819, 55.75613895], [37.64686429, 55.75329104], [37.64193499, 55.75004762], [37.63439908, 55.74443474], [37.63027594, 55.74257538], [37.62963285, 55.74042022], [37.63204728, 55.73589399], [37.63522027, 55.73156491], [37.63655504, 55.72951903], [37.63706563, 55.72696756], [37.63630471, 55.72380844], [37.63463724, 55.719588], [37.63332082, 55.71656563], [37.63306356, 55.71408193], [37.63110098, 55.71169436], [37.62447375, 55.71093748], [37.62439705, 55.70859507], [37.62297112, 55.70452786], [37.62149439, 55.70107349], [37.62120628, 55.69573134], [37.62231566, 55.68972473], [37.62358155, 55.68431249], [37.62465441, 55.68051308], [37.62532275, 55.67852212], [37.62646871, 55.67542781], [37.62533477, 55.66939914], [37.61497616, 55.66420414], [37.61272286, 55.6630552], [37.60999093, 55.66076812], [37.60520769, 55.65619014], [37.60513109, 55.65352634], [37.60538678, 55.64911174], [37.60545188, 55.64561675], [37.60424809, 55.64377022]]}, "properties": {"route": 3, "trip": "2040217", "direction": "1", "stop_count": 37, "stops": ["Метро \"Чистые пруды\"", "Большой Харитоньевский переулок", "Покровские Ворота", "Казарменный переулок", "Воронцово Поле", "Яузские Ворота", "Комиссариатский мост", "Метро \"Новокузнецкая\"", "Метро \"Третьяковская\"", "Вишняковский переулок", "Метро \"Павелецкая\"", "Павелецкий вокзал", "Стремянный переулок", "Жуков проезд", "Дубининская улица, 57", "1-й Павловский переулок", "Улица Даниловский Вал", "Свято-Данилов монастырь", "Серпуховская Застава", "Метро \"Тульская\"", "Платформа Тульская", "Даниловская мануфактура", "Стадион \"Труд\"", "МЦК Верхние Котлы", "Метро \"Нагатинская\"", "Платформа Нагатинская", "Нижние Котлы", "1-й Нагатинский проезд", "Хлебозаводский проезд", "Симферопольский бульвар", "Нахимовский проспект", "Фруктовая улица", "Болотниковская улица", "Метро \"Каховская\"", "Симферопольский бульвар, 20", "Черноморский бульвар", "Метро \"Чертановская\""]}}, {"type": "Feature", "geometry": {"type": "LineString", "coordinates": [[37.73418276, 55.81425897], [37.7329065, 55.81522012], [37.72699156, 55.81686572], [37.72173105, 55.81835183], [37.71625979, 55.81836239], [37.70979649, 55.81977294], [37.70534718, 55.81903485], [37.7008883, 55.81702234], [37.69426254, 55.81493563], [37.68872806, 55.81701221], [37.68489199, 55.81570202], [37.6852145, 55.81055324], [37.68764082, 55.8087641], [37.6916174, 55.8056826], [37.68838214, 55.80262127], [37.68612005, 55.79949205], [37.682814, 55.79579391], [37.68047038, 55.79263076], [37.68156037, 55.79027197], [37.68092463, 55.78931715], [37.67560718, 55.78526693], [37.67039099, 55.78170137], [37.66659557, 55.77971829], [37.66688661, 55.77887804], [37.66984771, 55.77660998], [37.67372519, 55.77707564], [37.67773965, 55.7751935], [37.67843822, 55.77263602], [37.67929408, 55.76913697], [37.67997633, 55.76561047], [37.68146317, 55.76279897], [37.68640589, 55.76129453], [37.68538608, 55.75800291], [37.68190906, 55.75550749], [37.67815638, 55.75208992], [37.67572408, 55.74899484], [37.67056031, 55.74740161], [37.66858237, 55.74753346], [37.66537738, 55.75116833], [37.66370543, 55.75342677], [37.66015268, 55.75561588]]}, "properties": {"route": 4, "trip": "2042548", "direction": "0", "stop_count": 41, "stops": ["Метро \"Бульвар Рокоссовского\"", "Метро \"Бульвар Рокоссовского\"", "5-й проезд Подбельского", "3-й проезд Подбельского", "Игральная улица", "Погонный проезд", "Ланинский переулок", "Богородское", "Богородский храм", "Богатырский мост", "Ростокинский проезд", "Большая Ширяевская улица", "2-й Ширяевский переулок", "Большая Оленья улица", "Майский просек", "Улица Короленко", "Охотничья улица", "ПКиО \"Сокольники\"", "2-й Полевой переулок", "Метро \"Сокольники\"", "МЦД Митьково", "Леснорядская улица", "Метро \"Красносельская\"", "Нижняя Красносельская улица", "Ольховская улица", "Поликлиника", "Басманный двор", "Метро \"Бауманская\"", "Аптекарский переулок", "МГТУ имени Н.Э. Баумана", "Лефортовская набережная", "Лефортовский мост", "Красноказарменная площадь", "Библиотека имени Грина", "Трамвайно-ремонтный завод", "Дом культуры \"Серп и Молот\"", "Музей имени Андрея Рублёва", "Костомаровский мост", "Дом культуры Метростроя", "3-й Сыромятнический переулок", "Курский вокзал"]}}, {"type": "Feature", "geometry": {"type": "LineString", "coordinates": [[37.66015268, 55.75561588], [37.66381365, 55.75303592], [37.66501994, 55.75139494], [37.66850777, 55.74738145], [37.67078763, 55.74741417], [37.67586956, 55.74867802], [37.67831401, 55.75207558], [37.68222066, 55.75560791], [37.68511368, 55.75767027], [37.6866654, 55.76118847], [37.68256222, 55.76292813], [37.68025952, 55.76521016], [37.67975659, 55.7679783], [37.67884812, 55.77201601], [37.67800527, 55.77521461], [37.6733427, 55.77717624], [37.67044956, 55.77653641], [37.66677288, 55.77922939], [37.6707031, 55.78173574], [37.67586004, 55.78534016], [37.68108697, 55.78926192], [37.68168369, 55.79049393], [37.68092823, 55.79257493], [37.68302898, 55.79569407], [37.68615588, 55.79922875], [37.68880387, 55.80277099], [37.69184905, 55.80546837], [37.68830626, 55.80849671], [37.68540604, 55.81065824], [37.68563378, 55.81514063], [37.68907251, 55.8167224], [37.69588962, 55.81489989], [37.70056572, 55.81657268], [37.70494203, 55.81876844], [37.71011632, 55.81963163], [37.71553261, 55.81848072], [37.72105631, 55.81800234], [37.72597918, 55.81698697], [37.73418276, 55.81425897]]}, "properties": {"route": 4, "trip": "2042549", "direction": "1", "stop_count": 39, "stops": ["Курский вокзал", "3-й Сыромятнический переулок", "Дом культуры Метростроя", "Костомаровский мост", "Музей имени Андрея Рублёва", "Дом культуры \"Серп и Молот\"", "Трамвайно-ремонтный завод", "Библиотека имени Грина", "Красноказарменная площадь", "Лефортовский мост", "Лефортовская набережная", "МГТУ имени Н.Э. Баумана", "Аптекарский переулок", "Метро \"Бауманская\"", "Басманный двор", "Поликлиника", "Ольховская улица", "Метро \"Красносельская\"", "Леснорядская улица", "МЦД Митьково", "Метро \"Сокольники\"", "2-й Полевой переулок", "ПКиО \"Сокольники\"", "Охотничья улица", "Улица Короленко", "Майский просек", "Большая Оленья улица", "2-й Ширяевский переулок", "Большая Ширяевская улица", "Ростокинский проезд", "Богатырский мост", "Богородский храм", "Богородское", "Ланинский переулок", "Погонный проезд", "Игральная улица", "3-й проезд Подбельского", "5-й проезд Подбельского", "Метро \"Бульвар Рокоссовского\""]}}, {"type": "Feature", "geometry": {"type": "LineString", "coordinates": [[37.63413048, 55.79273918], [37.63267531, 55.789966], [37.6296427, 55.78904433], [37.62320838, 55.78875653], [37.61725226, 55.78855199], [37.61010557, 55.78888604], [37.60892124, 55.79009323], [37.60447266, 55.78979413], [37.60115188, 55.7895382], [37.60050042, 55.78791637], [37.6006964, 55.78482452], [37.59629689, 55.78384494], [37.59229699, 55.78107394], [37.58970088, 55.77938614], [37.58648288, 55.77726964], [37.58343516, 55.77634643]]}, "properties": {"route": 5, "trip": "2035712", "direction": "0", "stop_count": 16, "stops": ["Метро \"Рижская\"", "Улица Гиляровского", "Улица Щепкина", "Олимпийский проспект", "Улица Советской Армии", "МИИТ", "Улица Образцова", "Дворец культуры МИИТ", "Минаевский переулок", "Тихвинский переулок", "Улица Палиха", "Лесная улица", "Миусское депо", "Дом культуры имени Зуева", "Метро \"Белорусская\"", "Белорусский вокзал"]}}, {"type": "Feature", "geometry": {"type": "LineString", "coordinates": [[37.58343516, 55.77634643], [37.58669239, 55.77714634], [37.58994928, 55.77925154], [37.59247197, 55.78086451], [37.59664108, 55.78370364], [37.60160559, 55.78579101], [37.60090453, 55.7875859], [37.60257556, 55.78947323], [37.60493144, 55.7896183], [37.60909998, 55.78993401], [37.60980978, 55.78904404], [37.6160698, 55.78844884], [37.6217527, 55.78866905], [37.62820185, 55.7888373], [37.63345573, 55.79089476], [37.63413048, 55.79273918]]}, "properties": {"route": 5, "trip": "2035713", "direction": "1", "stop_count": 16, "stops": ["Белорусский вокзал", "Метро \"Белорусская\"", "Дом культуры имени Зуева", "Миусское депо", "Лесная улица", "Улица Палиха", "Тихвинский переулок", "Минаевский переулок", "Дворец культуры МИИТ", "Улица Образцова", "МИИТ", "Улица Советской Армии", "Олимпийский проспект", "Улица Щепкина", "Улица Гиляровского", "Метро \"Рижская\""]}}, {"type": "Feature", "geometry": {"type": "LineString", "coordinates": [[37.4074271, 55.85164054], [37.40781855, 55.85268104], [37.40906549, 55.85439425], [37.41090749, 55.85577158], [37.41382842, 55.85705966], [37.41601577, 55.85761391], [37.41960479, 55.85795752], [37.4262091, 55.85818559], [37.4311526, 55.85779201], [37.43676375, 55.85547088], [37.43879981, 55.85189005], [37.43946701, 55.846368], [37.43879189, 55.84277594], [37.43784849, 55.83814828], [37.44158514, 55.83710975], [37.45340215, 55.83605176], [37.45346035, 55.8326108], [37.45259351, 55.82884291], [37.45162159, 55.8250825], [37.45101912, 55.81921573], [37.46006458, 55.81688858], [37.46951471, 55.81427015], [37.47489816, 55.81064426], [37.47657816, 55.81035022], [37.48329928, 55.81053286], [37.49353232, 55.80899596], [37.4989788, 55.80787893], [37.50463194, 55.80679541], [37.50857732, 55.80578153]]}, "properties": {"route": 6, "trip": "2040298", "direction": "0", "stop_count": 29, "stops": ["Братцево", "Братцево", "НИИАТ", "Улица Вилиса Лациса", "Улица Героев Панфиловцев, 33", "Университет имени Менделеева", "Туристская улица", "Улица Героев Панфиловцев, 21", "Планерная улица", "Улица Фомичёвой", "Метро \"Сходненская\"", "Нелидовская улица", "Улица Фабрициуса", "Западный мост", "Новопоселковая улица", "Восточный мост", "Улица Мещерякова", "Улица Циолковского", "Тушинская улица", "Канал имени Москвы", "Больница РЖД", "Покровское-Глебово", "Покровское-Стрешнево", "Улица Академика Курчатова", "Пехотная улица", "Улица Панфилова", "Университет \"РОСБИОТЕХ\"", "Гидропроект", "Метро \"Сокол\""]}}, {"type": "Feature", "geometry": {"type": "LineString", "coordinates": [[37.50857732, 55.80578153], [37.50542906, 55.80679241], [37.49902646, 55.80797177], [37.49360758, 55.80909901], [37.48287667, 55.81068655], [37.47657704, 55.81049225], [37.46849255, 55.81466893], [37.46064719, 55.81685913], [37.45106449, 55.81932122], [37.45164585, 55.82431894], [37.45306759, 55.82903306], [37.45369285, 55.8321671], [37.45292522, 55.83630464], [37.44191282, 55.8372167], [37.43800898, 55.83802898], [37.43886102, 55.84220482], [37.43964458, 55.845946], [37.43899303, 55.8520082], [37.43678361, 55.85563746], [37.43213298, 55.85771236], [37.42676494, 55.85830733], [37.42046756, 55.85816199], [37.41593988, 55.85770274], [37.41272719, 55.85684626], [37.41086848, 55.85596004], [37.4092385, 55.85480987], [37.40775714, 55.85288588], [37.4074271, 55.85164054]]}, "properties": {"route": 6, "trip": "2040299", "direction": "1", "stop_count": 28, "stops": ["Метро \"Сокол\"", "Гидропроект", "Университет \"РОСБИОТЕХ\"", "Улица Панфилова", "Пехотная улица", "Улица Академика Курчатова", "Покровское-Глебово", "Больница РЖД", "Канал имени Москвы", "Тушинская улица", "Улица Циолковского", "Улица Мещерякова", "Восточный мост", "Новопоселковая улица", "Западный мост", "Улица Фабрициуса", "Нелидовская улица", "Метро \"Сходненская\"", "Улица Фомичёвой", "Планерная улица", "Улица Героев Панфиловцев, 21", "Туристская улица", "Университет имени Менделеева", "Улица Героев Панфиловцев, 33", "Улица Вилиса Лациса", "НИИАТ", "Детская больница", "Братцево"]}}, {"type": "Feature", "geometry": {"type": "LineString", "coordinates": [[37.73418276, 55.81425897], [37.7329065, 55.81522012], [37.72699156, 55.81686572], [37.72173105, 55.81835183], [37.71625979, 55.81836239], [37.70979649, 55.81977294], [37.70534718, 55.81903485], [37.7008883, 55.81702234], [37.69562276, 55.81492094], [37.69781074, 55.81229936], [37.70357601, 55.80998018], [37.70608636, 55.80717974], [37.70709936, 55.80466788], [37.71265136, 55.79992558], [37.71451347, 55.79762528], [37.70927947, 55.79524841], [37.69947064, 55.79456422], [37.690769, 55.79319443], [37.68653569, 55.7915125], [37.68092463, 55.78931715], [37.67560718, 55.78526693], [37.67039099, 55.78170137], [37.66659557, 55.77971829], [37.65623168, 55.77552831], [37.65289941, 55.77473788], [37.64971228, 55.77634369], [37.64543248, 55.77951421], [37.64162925, 55.77974859], [37.6391092, 55.77997341], [37.6345373, 55.7804434], [37.63235141, 55.7807391], [37.63072917, 55.77919093], [37.62956519, 55.77836559], [37.62317172, 55.7790867], [37.61683998, 55.77860272], [37.61339067, 55.77930654], [37.60917231, 55.78053319], [37.61100272, 55.78262541], [37.60507099, 55.78515112], [37.6006964, 55.78482452], [37.59629689, 55.78384494], [37.59229699, 55.78107394], [37.58970088, 55.77938614], [37.58648288, 55.77726964], [37.58343516, 55.77634643]]}, "properties": {"route": 7, "trip": "2042578", "direction": "0", "stop_count": 45, "stops": ["Метро \"Бульвар Рокоссовского\"", "Метро \"Бульвар Рокоссовского\"", "5-й проезд Подбельского", "3-й проезд Подбельского", "Игральная улица", "Погонный проезд", "Ланинский переулок", "Богородское", "Богородский храм", "Инновационный университет", "1-я Прогонная улица", "Телерадиокомпания \"МИР\"", "Мосгорсуд", "Улица Хромова", "Метро \"Преображенская площадь\"", "Преображенская площадь", "Трамвайное депо имени Русакова", "Малая Остроумовская улица", "Клуб Русакова - Сцена \"Мельников\"", "Метро \"Сокольники\"", "МЦД Митьково", "Леснорядская улица", "Метро \"Красносельская\"", "Метро \"Комсомольская\"", "МЦД Площадь трёх вокзалов", "Каланчёвская улица", "Пантелеевская улица", "Астраханский переулок", "Ботанический переулок", "Метро \"Проспект Мира\"", "Спорткомплекс \"Олимпийский\"", "Улица Гиляровского", "Улица Щепкина", "Театр зверей имени Дурова", "Самотёчная улица", "4-й Самотёчный переулок", "Селезнёвская улица", "Улица Достоевского", "Площадь Борьбы", "Улица Палиха", "Лесная улица", "Миусское депо", "Дом культуры имени Зуева", "Метро \"Белорусская\"", "Белорусский вокзал"]}}, {"type": "Feature", "geometry": {"type": "LineString", "coordinates": [[37.58343516, 55.77634643], [37.58669239, 55.77714634], [37.58994928, 55.77925154], [37.59247197, 55.78086451], [37.59664108, 55.78370364], [37.60259878, 55.78514864], [37.60644146, 55.78433889], [37.61039943, 55.78302671], [37.6091626, 55.78114054], [37.61283405, 55.77937305], [37.6166926, 55.77847152], [37.62313801, 55.77897066], [37.62996712, 55.77826007], [37.63100066, 55.77922948], [37.63249961, 55.78055104], [37.63426668, 55.78033636], [37.63967709, 55.77978343], [37.64217475, 55.77959408], [37.64511275, 55.77943766], [37.65008548, 55.77587563], [37.65317522, 55.77458851], [37.65583193, 55.77528444], [37.66570764, 55.7791991], [37.6707031, 55.78173574], [37.67586004, 55.78534016], [37.68108697, 55.78926192], [37.68664524, 55.79142768], [37.69116107, 55.7931836], [37.69824516, 55.79429628], [37.70936603, 55.79516086], [37.71486676, 55.7970052], [37.71291695, 55.80015014], [37.70748084, 55.80443371], [37.70662416, 55.80682671], [37.70393402, 55.81000988], [37.69763443, 55.81258472], [37.69588962, 55.81489989], [37.70056572, 55.81657268], [37.70494203, 55.81876844], [37.71011632, 55.81963163], [37.71553261, 55.81848072], [37.72105631, 55.81800234], [37.72597918, 55.81698697], [37.73418276, 55.81425897]]}, "properties": {"route": 7, "trip": "2042579", "direction": "1", "stop_count": 44, "stops": ["Белорусский вокзал", "Метро \"Белорусская\"", "Дом культуры имени Зуева", "Миусское депо", "Лесная улица", "Улица Палиха", "Площадь Борьбы", "Улица Достоевского", "Селезнёвская улица", "4-й Самотёчный переулок", "Самотёчная улица", "Театр зверей имени Дурова", "Улица Щепкина", "Улица Гиляровского", "Спорткомплекс \"Олимпийский\"", "Метро \"Проспект Мира\"", "Ботанический переулок", "Астраханский переулок", "Пантелеевская улица", "Каланчёвская улица", "МЦД Площадь трёх вокзалов", "Метро \"Комсомольская\"", "Метро \"Красносельская\"", "Леснорядская улица", "МЦД Митьково", "Метро \"Сокольники\"", "Клуб Русакова - Сцена \"Мельников\"", "Малая Остроумовская улица", "Трамвайное депо имени Русакова", "Преображенская площадь", "Метро \"Преображенская площадь\"", "Улица Хромова", "Мосгорсуд", "Телерадиокомпания \"МИР\"", "1-я Прогонная улица", "Инновационный университет", "Богородский храм", "Богородское", "Ланинский переулок", "Погонный проезд", "Игральная улица", "3-й проезд Подбельского", "5-й проезд Подбельского", "Метро \"Бульвар Рокоссовского\""]}}, {"type": "Feature", "geometry": {"type": "LineString", "coordinates": [[37.38790222, 55.79938178], [37.39195929, 55.80006736], [37.39532661, 55.79934728], [37.40161143, 55.79908412], [37.40817186, 55.80192076], [37.41324946, 55.80520178], [37.41986396, 55.80430718], [37.45330094, 55.80551417], [37.4615311, 55.80985731]]}, "properties": {"route": 10, "trip": "2040348", "direction": "0", "stop_count": 9, "stops": ["Таллинская улица", "Улица Кулакова", "Таллинская улица, 6", "Школа имени Марины Цветаевой", "Метро \"Строгино\"", "Улица Маршала Катукова", "Улица Исаковского, 33", "Детская поликлиника", "Метро \"Щукинская\""]}}, {"type": "Feature", "geometry": {"type": "LineString", "coordinates": [[37.4615311, 55.80985731], [37.46125969, 55.8102063], [37.4582395, 55.8069643], [37.4537933, 55.80569873], [37.4201463, 55.80439881], [37.41372869, 55.80523191], [37.40769572, 55.80151161], [37.40230587, 55.7992613], [37.39577021, 55.79938251], [37.39254668, 55.80003836], [37.38790222, 55.79938178]]}, "properties": {"route": 10, "trip": "2040349", "direction": "1", "stop_count": 11, "stops": ["Метро \"Щукинская\"", "Метро \"Щукинская\"", "Медицинский центр имени Бурназяна", "Детская поликлиника", "Улица Исаковского, 33", "Улица Маршала Катукова", "Метро \"Строгино\"", "Школа имени Марины Цветаевой", "Таллинская улица, 6", "Улица Кулакова", "Таллинская улица"]}}, {"type": "Feature", "geometry": {"type": "LineString", "coordinates": [[37.61705787, 55.8227811], [37.61571397, 55.82346959], [37.62131379, 55.82176481], [37.62821348, 55.82175285], [37.63369298, 55.82199764], [37.63883226, 55.82398187], [37.64645487, 55.82702627], [37.64880049, 55.82629202], [37.65220128, 55.82493055], [37.65842513, 55.82284593], [37.66259641, 55.82155687], [37.6705852, 55.81920196], [37.67884815, 55.81729369], [37.68398277, 55.81532221], [37.68907251, 55.8167224], [37.69410236, 55.81479706], [37.69781074, 55.81229936], [37.70357601, 55.80998018], [37.70608636, 55.80717974], [37.70709936, 55.80466788], [37.71265136, 55.79992558], [37.71451347, 55.79762528], [37.71434124, 55.79464714], [37.71531926, 55.79186012], [37.71638709, 55.78924832], [37.716869, 55.78742708], [37.72008527, 55.78215255], [37.73112375, 55.78258775], [37.73864919, 55.78286096], [37.74609084, 55.78379333], [37.75022768, 55.78654187], [37.76169693, 55.7866487], [37.77092625, 55.79007904], [37.77820362, 55.79207947], [37.78379377, 55.79281619], [37.78902938, 55.792988], [37.79476118, 55.79311915], [37.80028776, 55.79317447], [37.80625892, 55.79327873], [37.81327101, 55.79339478], [37.8198454, 55.79350052], [37.82268714, 55.79448147]]}, "properties": {"route": 11, "trip": "2043371", "direction": "0", "stop_count": 42, "stops": ["Усадьба Останкино", "Усадьба Останкино", "Аргуновская улица", "Улица Цандера", "ВДНХ (южная)", "Метро \"ВДНХ\"", "ВДНХ (северная)", "Проспект Мира", "Ярославская улица", "Улица Бориса Галушкина, 17", "Площадь Академика Люльки", "Станция Юных натуралистов", "Лингвистический университет", "Ростокинский проезд", "Богатырский мост", "Богородский храм", "Инновационный университет", "1-я Прогонная улица", "Телерадиокомпания \"МИР\"", "Мосгорсуд", "Улица Хромова", "Метро \"Преображенская площадь\"", "Метро \"Преображенская площадь\"", "Преображенское кладбище", "Улица Преображенский Вал", "Улица Измайловский Вал", "Метро \"Семёновская\"", "Улица Ибрагимова", "Фортунатовская улица", "Мост Окружной железной дороги", "Метро \"Партизанская\"", "Главная аллея", "Галерея \"Измайлово\"", "Измайловская площадь", "3-я Парковая улица", "5-я Парковая улица", "7-я Парковая улица", "Метро \"Первомайская\"", "Районный центр \"Первомайский\"", "13-я Парковая улица", "15-я Парковая улица", "Восточное Измайлово"]}}, {"type": "Feature", "geometry": {"type": "LineString", "coordinates": [[37.82268714, 55.79448147], [37.82154062, 55.79364821], [37.81852669, 55.7935984], [37.8121004, 55.79349712], [37.80490753, 55.79337532], [37.79854007, 55.79327072], [37.79330963, 55.79321952], [37.78740798, 55.79308626], [37.78212551, 55.7927587], [37.77504648, 55.79145605], [37.7708356, 55.79019455], [37.76108428, 55.78678655], [37.75092424, 55.78665204], [37.74594301, 55.78365525], [37.73908137, 55.78309315], [37.73005338, 55.78269035], [37.72186995, 55.78238945], [37.71879049, 55.78259463], [37.717206, 55.78746136], [37.7167225, 55.78927165], [37.71557242, 55.79196763], [37.71483784, 55.79467081], [37.71486676, 55.7970052], [37.71291695, 55.80015014], [37.70748084, 55.80443371], [37.70662416, 55.80682671], [37.70393402, 55.81000988], [37.69763443, 55.81258472], [37.69426254, 55.81493563], [37.68872806, 55.81701221], [37.68489199, 55.81570202], [37.6789477, 55.81738739], [37.67074453, 55.81930408], [37.66268397, 55.8216512], [37.65853611, 55.82292335], [37.6524134, 55.82497515], [37.64888199, 55.82637175], [37.64595709, 55.82728059], [37.63855518, 55.82395384], [37.6339465, 55.82214444], [37.62890637, 55.8218625], [37.62187219, 55.82192054], [37.61705787, 55.8227811]]}, "properties": {"route": 11, "trip": "2043372", "direction": "1", "stop_count": 43, "stops": ["Восточное Измайлово", "Восточное Измайлово", "15-я Парковая улица", "13-я Парковая улица", "Районный центр \"Первомайский\"", "Метро \"Первомайская\"", "7-я Парковая улица", "5-я Парковая улица", "3-я Парковая улица", "Измайловская площадь", "Галерея \"Измайлово\"", "Главная аллея", "Метро \"Партизанская\"", "Мост Окружной железной дороги", "Фортунатовская улица", "Улица Ибрагимова", "Метро \"Семёновская\"", "Метро \"Семёновская\"", "Улица Измайловский Вал", "Улица Преображенский Вал", "Преображенское кладбище", "Метро \"Преображенская площадь\"", "Метро \"Преображенская площадь\"", "Улица Хромова", "Мосгорсуд", "Телерадиокомпания \"МИР\"", "1-я Прогонная улица", "Инновационный университет", "Богородский храм", "Богатырский мост", "Ростокинский проезд", "Лингвистический университет", "Станция Юных натуралистов", "Площадь Академика Люльки", "Улица Бориса Галушкина, 17", "Ярославская улица", "Проспект Мира", "ВДНХ (северная)", "Метро \"ВДНХ\"", "ВДНХ (южная)", "Улица Цандера", "Аргуновская улица", "Усадьба Останкино"]}}, {"type": "Feature", "geometry": {"type": "LineString", "coordinates": [[37.82268714, 55.79448147], [37.82154062, 55.79364821], [37.81852669, 55.7935984], [37.8121004, 55.79349712], [37.80490753, 55.79337532], [37.79854007, 55.79327072], [37.79330963, 55.79321952], [37.78740798, 55.79308626], [37.78212551, 55.7927587], [37.77504648, 55.79145605], [37.7708356, 55.79019455], [37.76108428, 55.78678655], [37.75092424, 55.78665204], [37.74594301, 55.78365525], [37.73908137, 55.78309315], [37.73005338, 55.78269035], [37.72186995, 55.78238945], [37.71850165, 55.78165116], [37.72132116, 55.77756426], [37.72335535, 55.77530992], [37.72620637, 55.77217249], [37.72829742, 55.76985337], [37.72997799, 55.76801258], [37.73237164, 55.76537644], [37.73501869, 55.76250165], [37.73699846, 55.76037197], [37.73982687, 55.75726262], [37.73695626, 55.75561843], [37.72392332, 55.75309599], [37.72077085, 55.75246234], [37.71547704, 55.75147797], [37.70916248, 55.75019468], [37.70119769, 55.74863737], [37.69482339, 55.74786714], [37.68921718, 55.74743741], [37.68165749, 55.74687906], [37.67860398, 55.74524225], [37.67672405, 55.74318985], [37.67422608, 55.74057473], [37.67244582, 55.73798843], [37.67026601, 55.73521976], [37.6634618, 55.73133132], [37.66152474, 55.72975115], [37.66331442, 55.72684475], [37.66395416, 55.72424032], [37.66849532, 55.72188493], [37.67388165, 55.72083739], [37.6760721, 55.71818243], [37.67823797, 55.71537983], [37.67850074, 55.71421404]]}, "properties": {"route": 12, "trip": "2043157", "direction": "0", "stop_count": 50, "stops": ["Восточное Измайлово", "Восточное Измайлово", "15-я Парковая улица", "13-я Парковая улица", "Районный центр \"Первомайский\"", "Метро \"Первомайская\"", "7-я Парковая улица", "5-я Парковая улица", "3-я Парковая улица", "Измайловская площадь", "Галерея \"Измайлово\"", "Главная аллея", "Метро \"Партизанская\"", "Мост Окружной железной дороги", "Фортунатовская улица", "Улица Ибрагимова", "Метро \"Семёновская\"", "Метро \"Семёновская\"", "Кирпичная улица", "Вольная улица", "10-я улица Соколиной Горы", "9-я улица Соколиной Горы", "8-я улица Соколиной Горы", "Проспект Будённого, 24", "5-я улица Соколиной Горы", "3-я улица Соколиной Горы", "Гаражная улица", "Улица Буракова", "Дом культуры \"Компрессор\"", "Метро \"Авиамоторная\"", "Метро \"Авиамоторная\"", "Горбатый путепровод", "Душинская улица", "Старообрядческая улица", "МЦД Москва-Товарная", "Метро \"Площадь Ильича\"", "Библиотечная улица", "Новорогожская улица", "Малая Андроньевская улица", "Абельмановская Застава", "Кинотеатр \"Победа\"", "Метро \"Пролетарская\"", "Динамовская улица", "Арбатецкая улица", "Шарикоподшипниковская улица", "ЦНИИТМАШ", "Новоостаповская улица", "Метро \"Дубровка\"", "МЦК Дубровка", "МЦК Дубровка"]}}, {"type": "Feature", "geometry": {"type": "LineString", "coordinates": [[37.67850074, 55.71421404], [37.67853812, 55.71521257], [37.67652303, 55.71787208], [37.6746132, 55.72044752], [37.66913948, 55.72198839], [37.66417052, 55.72367835], [37.66354269, 55.72674768], [37.66156425, 55.73006156], [37.66409171, 55.73134335], [37.67037214, 55.73487675], [37.67259894, 55.73794835], [37.67741908, 55.74348693], [37.67909484, 55.74522631], [37.68172587, 55.74677458], [37.68947773, 55.7473783], [37.69341695, 55.74765675], [37.7020464, 55.74870511], [37.70844553, 55.74993524], [37.7161645, 55.75150237], [37.72082716, 55.75236271], [37.72378877, 55.75291464], [37.73668507, 55.75545612], [37.73988521, 55.75737659], [37.73645468, 55.76110903], [37.73419408, 55.76358271], [37.73250897, 55.76541912], [37.73015084, 55.76798773], [37.72774494, 55.77063947], [37.7258268, 55.7727669], [37.7234992, 55.77534646], [37.72136516, 55.77764821], [37.72008527, 55.78215255], [37.73112375, 55.78258775], [37.73864919, 55.78286096], [37.74609084, 55.78379333], [37.75022768, 55.78654187], [37.76169693, 55.7866487], [37.77092625, 55.79007904], [37.77820362, 55.79207947], [37.78379377, 55.79281619], [37.78902938, 55.792988], [37.79476118, 55.79311915], [37.80028776, 55.79317447], [37.80625892, 55.79327873], [37.81327101, 55.79339478], [37.8198454, 55.79350052], [37.82268714, 55.79448147]]}, "properties": {"route": 12, "trip": "2043158", "direction": "1", "stop_count": 47, "stops": ["МЦК Дубровка", "МЦК Дубровка", "Метро \"Дубровка\"", "Новоостаповская улица", "ЦНИИТМАШ", "Шарикоподшипниковская улица", "Арбатецкая улица", "Динамовская улица", "Метро \"Пролетарская\"", "Кинотеатр \"Победа\"", "Абельмановская Застава", "Новорогожская улица", "Библиотечная улица", "Метро \"Площадь Ильича\"", "МЦД Москва-Товарная", "Старообрядческая улица", "Душинская улица", "Горбатый путепровод", "Метро \"Авиамоторная\"", "Метро \"Авиамоторная\"", "Дом культуры \"Компрессор\"", "Улица Буракова", "Гаражная улица", "3-я улица Соколиной Горы", "5-я улица Соколиной Горы", "Проспект Будённого, 24", "8-я улица Соколиной Горы", "9-я улица Соколиной Горы", "10-я улица Соколиной Горы", "Вольная улица", "Кирпичная улица", "Метро \"Семёновская\"", "Улица Ибрагимова", "Фортунатовская улица", "Мост Окружной железной дороги", "Метро \"Партизанская\"", "Главная аллея", "Галерея \"Измайлово\"", "Измайловская площадь", "3-я Парковая улица", "5-я Парковая улица", "7-я Парковая улица", "Метро \"Первомайская\"", "Районный центр \"Первомайский\"", "13-я Парковая улица", "15-я Парковая улица", "Восточное Измайлово"]}}]}